{
    "links": {
        "self": "http://www.neowsapp.com/rest/v1/neo/3837634?api_key=iIulBulltgU6a56xZRHN4H3l9WmuAYTsLGpBGhQ2"
    },
    "id": "3837634",
    "neo_reference_id": "3837634",
    "name": "(2019 AM3)",
    "designation": "2019 AM3",
    "nasa_jpl_url": "http://ssd.jpl.nasa.gov/sbdb.cgi?sstr=3837634",
    "absolute_magnitude_h": 19.4,
    "estimated_diameter": {
        "kilometers": {
            "estimated_diameter_min": 0.3503926411,
            "estimated_diameter_max": 0.7835017643
        },
        "meters": {
            "estimated_diameter_min": 350.3926411083,
            "estimated_diameter_max": 783.5017643338
        },
        "miles": {
            "estimated_diameter_min": 0.2177238258,
            "estimated_diameter_max": 0.4868452748
        },
        "feet": {
            "estimated_diameter_min": 1149.5821926537,
            "estimated_diameter_max": 2570.543928497
        }
    },
    "is_potentially_hazardous_asteroid": false,
    "close_approach_data": [
        {
            "close_approach_date": "2018-12-26",
            "close_approach_date_full": "2018-Dec-26 07:27",
            "epoch_date_close_approach": 1545809220000,
            "relative_velocity": {
                "kilometers_per_second": "31.4359350332",
                "kilometers_per_hour": "113169.3661196456",
                "miles_per_hour": "70319.0430758431"
            },
            "miss_distance": {
                "astronomical": "0.1932610605",
                "lunar": "75.1785525345",
                "kilometers": "28911443.004741135",
                "miles": "17964737.647192263"
            },
            "orbiting_body": "Earth"
        }
    ],
    "orbital_data": {
        "orbit_id": "5",
        "orbit_determination_date": "2019-07-27 14:01:38",
        "first_observation_date": "2019-01-03",
        "last_observation_date": "2019-02-01",
        "data_arc_in_days": 29,
        "observations_used": 61,
        "orbit_uncertainty": "8",
        "minimum_orbit_intersection": ".0682474",
        "jupiter_tisserand_invariant": "2.996",
        "epoch_osculation": "2458491.5",
        "eccentricity": ".7762789611276448",
        "semi_major_axis": "2.322573216988336",
        "inclination": "26.23426922100968",
        "ascending_node_longitude": "71.99523834334254",
        "orbital_period": "1292.863120821262",
        "perihelion_distance": ".5196084929617384",
        "perihelion_argument": "286.4748079994488",
        "aphelion_distance": "4.125537941014932",
        "perihelion_time": "2458440.287130198041",
        "mean_anomaly": "14.26031327817115",
        "mean_motion": ".2784517511577854",
        "equinox": "J2000",
        "orbit_class": {
            "orbit_class_type": "APO",
            "orbit_class_description": "Near-Earth asteroid orbits which cross the Earth’s orbit similar to that of 1862 Apollo",
            "orbit_class_range": "a (semi-major axis) > 1.0 AU; q (perihelion) < 1.017 AU"
        }
    },
    "is_sentry_object": false
}